NORAD_CAT_ID,OBJECT_NAME,OBJECT_TYPE,EPOCH,MEAN_MOTION,ECCENTRICITY,INCLINATION,RA_OF_ASC_NODE,ARG_OF_PERICENTER,MEAN_ANOMALY,BSTAR,MEAN_MOTION_DOT,MEAN_MOTION_DDOT,TLE_LINE0,TLE_LINE1,TLE_LINE2,SEMIMAJOR_AXIS,PERIOD,APOGEE,PERIGEE,DECAYED
53779.0,STARLINK-4706,PAYLOAD,2024-07-07 03:34:46,15.08834121,0.0001489,53.2177,135.0646,89.8093,270.3069,-2.3012e-07,-2.92e-06,0.0,0 STARLINK-4706,1 53779U 22111G   24189.14914588 -.00000292  00000-0 -23012-6 0  9991,2 53779  53.2177 135.0646 0001489  89.8093 270.3069 15.08834121100711,6917.898,95.438,540.793,538.733,0.0
53779.0,STARLINK-4706,PAYLOAD,2024-07-08 05:00:55,15.08841407,0.000136,53.2173,130.3053,88.1938,271.9209,0.00013189,1.812e-05,0.0,0 STARLINK-4706,1 53779U 22111G   24190.20898118  .00001812  00000-0  13189-3 0  9998,2 53779  53.2173 130.3053 0001360  88.1938 271.9209 15.08841407100870,6917.876,95.437,540.682,538.8,0.0
53779.0,STARLINK-4706,PAYLOAD,2024-07-08 12:57:51,15.08845215,0.0001372,53.2174,128.8186,90.2758,269.8392,0.0001494,2.091e-05,0.0,0 STARLINK-4706,1 53779U 22111G   24190.54017884  .00002091  00000-0  14940-3 0  9994,2 53779  53.2174 128.8186 0001372  90.2758 269.8392 15.08845215101733,6917.864,95.437,540.679,538.78,0.0
53779.0,STARLINK-4706,PAYLOAD,2024-07-09 04:51:43,15.08839397,0.0001367,53.2168,125.8439,87.9891,272.1258,0.00012678,1.73e-05,0.0,0 STARLINK-4706,1 53779U 22111G   24191.20258526  .00001730  00000-0  12678-3 0  9993,2 53779  53.2168 125.8439 0001367  87.9891 272.1258 15.08839397101023,6917.882,95.438,540.693,538.802,0.0
53779.0,STARLINK-4706,PAYLOAD,2024-07-09 12:48:38,15.08853326,0.0001367,53.2166,124.3548,77.9585,282.156,0.00013345,1.837e-05,0.0,0 STARLINK-4706,1 53779U 22111G   24191.53377538  .00001837  00000-0  13345-3 0  9994,2 53779  53.2166 124.3548 0001367  77.9585 282.1560 15.08853326101075,6917.84,95.437,540.65,538.759,0.0
53779.0,STARLINK-4706,PAYLOAD,2024-07-10 03:07:07,15.08833944,0.0001342,53.2173,121.6805,88.1517,271.9629,-2.0297e-05,-6.11e-06,0.0,0 STARLINK-4706,1 53779U 22111G   24192.12995260 -.00000611  00000-0 -20297-4 0  9994,2 53779  53.2173 121.6805 0001342  88.1517 271.9629 15.08833944101167,6917.899,95.438,540.692,538.836,0.0
53779.0,STARLINK-4706,PAYLOAD,2024-07-10 12:39:25,15.08847215,0.00014,53.2169,119.8979,87.1473,272.9679,5.0045e-05,5.09e-06,0.0,0 STARLINK-4706,1 53779U 22111G   24192.52738270  .00000509  00000-0  50045-4 0  9992,2 53779  53.2169 119.8979 0001400  87.1473 272.9679 15.08847215101227,6917.858,95.437,540.692,538.755,0.0
53779.0,STARLINK-4706,PAYLOAD,2024-07-10 19:00:58,15.08839341,0.0001384,53.2167,118.7083,90.3911,269.724,0.00014334,1.994e-05,0.0,0 STARLINK-4706,1 53779U 22111G   24192.79234590  .00001994  00000-0  14334-3 0  9996,2 53779  53.2167 118.7083 0001384  90.3911 269.7240 15.08839341102076,6917.882,95.438,540.705,538.79,0.0
53779.0,STARLINK-4706,PAYLOAD,2024-07-11 04:33:17,15.08850554,0.0001385,53.2164,116.9223,96.6062,263.5088,0.00023405,3.44e-05,0.0,0 STARLINK-4706,1 53779U 22111G   24193.18978207  .00003440  00000-0  23405-3 0  9997,2 53779  53.2164 116.9223 0001385  96.6062 263.5088 15.08850554102134,6917.848,95.437,540.671,538.755,0.0
53779.0,STARLINK-4706,PAYLOAD,2024-07-12 01:13:18,15.08836873,0.0001284,53.216,113.0556,104.1101,256.0034,0.00017936,2.568e-05,0.0,0 STARLINK-4706,1 53779U 22111G   24194.05090763  .00002568  00000-0  17936-3 0  9998,2 53779  53.2160 113.0556 0001284 104.1101 256.0034 15.08836873101454,6917.89,95.438,540.643,538.867,0.0
53779.0,STARLINK-4706,PAYLOAD,2024-07-12 21:53:18,15.08849531,0.0001506,53.2167,109.1903,101.8999,258.2162,-0.00019483,-3.388e-05,0.0,0 STARLINK-4706,1 53779U 22111G   24194.91202096 -.00003388  00000-0 -19483-3 0  9999,2 53779  53.2167 109.1903 0001506 101.8999 258.2162 15.08849531102394,6917.851,95.437,540.758,538.674,0.0
53779.0,STARLINK-4706,PAYLOAD,2024-07-13 01:04:05,15.08838608,0.000126,53.2166,108.6001,87.0582,273.0554,6.3836e-05,7.28e-06,0.0,0 STARLINK-4706,1 53779U 22111G   24195.04450849  .00000728  00000-0  63836-4 0  9990,2 53779  53.2166 108.6001 0001260  87.0582 273.0554 15.08838608102412,6917.885,95.438,540.621,538.878,0.0
53779.0,STARLINK-4706,PAYLOAD,2024-07-13 21:44:06,15.08837258,0.0001243,53.2168,104.7346,96.9539,263.1595,6.0249e-05,6.71e-06,0.0,0 STARLINK-4706,1 53779U 22111G   24195.90562985  .00000671  00000-0  60249-4 0  9992,2 53779  53.2168 104.7346 0001243  96.9539 263.1595 15.08837258101734,6917.889,95.438,540.614,538.894,0.0
53779.0,STARLINK-4706,PAYLOAD,2024-07-14 10:27:12,15.0882496,0.0001291,53.2166,102.3552,92.7997,267.3143,-4.3186e-05,-9.75e-06,0.0,0 STARLINK-4706,1 53779U 22111G   24196.43556307 -.00000975  00000-0 -43186-4 0  9992,2 53779  53.2166 102.3552 0001291  92.7997 267.3143 15.08824960101810,6917.926,95.439,540.684,538.898,0.0
53779.0,STARLINK-4706,PAYLOAD,2024-07-14 21:34:54,15.08828304,0.0001413,53.2177,100.2721,84.0976,276.0178,3.2297e-06,-2.37e-06,0.0,0 STARLINK-4706,1 53779U 22111G   24196.89924427 -.00000237  00000-0  32297-5 0  9996,2 53779  53.2177 100.2721 0001413  84.0976 276.0178 15.08828304102692,6917.916,95.438,540.759,538.804,0.0
53779.0,STARLINK-4706,PAYLOAD,2024-07-15 02:21:03,15.08839199,0.0001313,53.2165,99.3787,87.5011,272.6131,9.6979e-05,1.256e-05,0.0,0 STARLINK-4706,1 53779U 22111G   24197.09795548  .00001256  00000-0  96979-4 0  9996,2 53779  53.2165  99.3787 0001313  87.5011 272.6131 15.08839199101915,6917.883,95.438,540.656,538.84,0.0
53779.0,STARLINK-4706,PAYLOAD,2024-07-15 10:17:58,15.08841617,0.0001303,53.2166,97.8917,85.9268,274.1873,0.0001104,1.47e-05,0.0,0 STARLINK-4706,1 53779U 22111G   24197.42915445  .00001470  00000-0  11040-3 0  9996,2 53779  53.2166  97.8917 0001303  85.9268 274.1873 15.08841617102772,6917.875,95.437,540.642,538.839,0.0
53779.0,STARLINK-4706,PAYLOAD,2024-07-15 21:25:42,15.08828792,0.0001679,53.2179,95.8149,97.1916,262.9267,4.2663e-05,3.91e-06,0.0,0 STARLINK-4706,1 53779U 22111G   24197.89284742  .00000391  00000-0  42663-4 0  9993,2 53779  53.2179  95.8149 0001679  97.1916 262.9267 15.08828792102032,6917.915,95.438,540.941,538.618,0.0
53779.0,STARLINK-4706,PAYLOAD,2024-07-16 02:11:50,15.08840531,0.0001167,53.2159,94.9183,101.5405,258.5718,0.00011508,1.544e-05,0.0,0 STARLINK-4706,1 53779U 22111G   24198.09155696  .00001544  00000-0  11508-3 0  9995,2 53779  53.2159  94.9183 0001167 101.5405 258.5718 15.08840531102063,6917.879,95.438,540.551,538.936,0.0
53779.0,STARLINK-4706,PAYLOAD,2024-07-16 21:16:27,15.08851984,0.0001894,53.2188,91.354,92.7974,267.3235,0.00020373,2.957e-05,0.0,0 STARLINK-4706,1 53779U 22111G   24198.88643113  .00002957  00000-0  20373-3 0  9997,2 53779  53.2188  91.3540 0001894  92.7974 267.3235 15.08851984102181,6917.844,95.437,541.019,538.399,0.0
53779.0,STARLINK-4706,PAYLOAD,2024-07-17 09:59:31,15.08873284,0.0001195,53.2161,88.9687,57.6713,302.4395,0.00040753,6.21e-05,0.0,0 STARLINK-4706,1 53779U 22111G   24199.41633563  .00006210  00000-0  40753-3 0  9995,2 53779  53.2161  88.9687 0001195  57.6713 302.4395 15.08873284102265,6917.779,95.435,540.47,538.817,0.0
53779.0,STARLINK-4706,PAYLOAD,2024-07-17 21:07:15,15.08828052,0.0001411,53.2176,86.8886,74.9093,285.2055,-0.00012294,-2.243e-05,0.0,0 STARLINK-4706,1 53779U 22111G   24199.88003976 -.00002243  00000-0 -12294-3 0  9998,2 53779  53.2176  86.8886 0001411  74.9093 285.2055 15.08828052102335,6917.917,95.438,540.758,538.806,0.0
53779.0,STARLINK-4706,PAYLOAD,2024-07-17 22:42:38,15.08832901,0.0001383,53.2166,86.5906,80.054,280.0608,-0.00017137,-3.014e-05,0.0,0 STARLINK-4706,1 53779U 22111G   24199.94627737 -.00003014  00000-0 -17137-3 0  9990,2 53779  53.2166  86.5906 0001383  80.0540 280.0608 15.08832901103153,6917.902,95.438,540.724,538.81,0.0
53779.0,STARLINK-4706,PAYLOAD,2024-07-18 09:50:19,15.08847185,0.0001017,53.2157,84.5075,104.4684,255.6421,-3.9012e-05,-9.09e-06,0.0,0 STARLINK-4706,1 53779U 22111G   24200.40994755 -.00000909  00000-0 -39012-4 0  9998,2 53779  53.2157  84.5075 0001017 104.4684 255.6421 15.08847185102411,6917.858,95.437,540.427,539.02,0.0
53779.0,STARLINK-4706,PAYLOAD,2024-07-18 22:33:25,15.08840934,0.0001631,53.2179,82.1316,81.1159,279.0017,-9.3952e-05,-1.783e-05,0.0,0 STARLINK-4706,1 53779U 22111G   24200.93987555 -.00001783  00000-0 -93952-4 0  9990,2 53779  53.2179  82.1316 0001631  81.1159 279.0017 15.08840934103302,6917.878,95.437,540.871,538.614,0.0
53779.0,STARLINK-4706,PAYLOAD,2024-07-19 09:41:06,15.08851061,0.0001167,53.2173,80.0468,108.7767,251.3352,3.0126e-05,1.92e-06,0.0,0 STARLINK-4706,1 53779U 22111G   24201.40354598  .00000192  00000-0  30126-4 0  9993,2 53779  53.2173  80.0468 0001167 108.7767 251.3352 15.08851061102561,6917.847,95.437,540.519,538.904,0.0
53779.0,STARLINK-4706,PAYLOAD,2024-07-19 20:48:49,15.08834925,0.0001617,53.2191,77.9633,119.878,240.2373,0.00025357,3.749e-05,0.0,0 STARLINK-4706,1 53779U 22111G   24201.86723789  .00003749  00000-0  25357-3 0  9995,2 53779  53.2191  77.9633 0001617 119.8780 240.2373 15.08834925102636,6917.896,95.438,540.88,538.642,0.0
53779.0,STARLINK-4706,PAYLOAD,2024-07-19 22:24:12,15.08832747,0.0001406,53.2179,77.6695,95.5871,264.5282,0.00022341,3.269e-05,0.0,0 STARLINK-4706,1 53779U 22111G   24201.93348072  .00003269  00000-0  22341-3 0  9998,2 53779  53.2179  77.6695 0001406  95.5871 264.5282 15.08832747103453,6917.903,95.438,540.74,538.795,0.0
53779.0,STARLINK-4706,PAYLOAD,2024-07-20 22:14:59,15.08840082,0.0001105,53.2163,73.2161,79.4305,280.6811,0.00019858,2.874e-05,0.0,0 STARLINK-4706,1 53779U 22111G   24202.92708028  .00002874  00000-0  19858-3 0  9999,2 53779  53.2163  73.2161 0001105  79.4305 280.6811 15.08840082103600,6917.88,95.438,540.51,538.981,0.0
53779.0,STARLINK-4706,PAYLOAD,2024-07-21 01:25:45,15.08846427,9.98e-05,53.216,72.6163,87.1082,273.0024,0.0001767,2.526e-05,0.0,0 STARLINK-4706,1 53779U 22111G   24203.05955602  .00002526  00000-0  17670-3 0  9990,2 53779  53.2160  72.6163 0000998  87.1082 273.0024 15.08846427102812,6917.861,95.437,540.416,539.035,0.0
